[{"id":4744,"name":"\u4E2D\u56FD"},{"areaCode":"0355","id":53285,"name":"\u963F\u5C14\u5DF4\u5C3C\u4E9A"},{"areaCode":"0213","id":53296,"name":"\u963F\u5C14\u53CA\u5229\u4E9A"},{"areaCode":"0093","id":53284,"name":"\u963F\u5BCC\u6C57"},{"areaCode":"0054","id":53297,"name":"\u963F\u6839\u5EF7"},{"areaCode":"0971","id":53300,"name":"\u963F\u8054\u914B"},{"areaCode":"0297","id":53302,"name":"\u963F\u9C81\u5DF4"},{"areaCode":"0968","id":53495,"name":"\u963F\u66FC"},{"areaCode":"0994","id":53315,"name":"\u963F\u585E\u62DC\u7586"},{"areaCode":"0020","id":53320,"name":"\u57C3\u53CA"},{"areaCode":"0251","id":53336,"name":"\u57C3\u585E\u4FC4\u6BD4\u4E9A"},{"areaCode":"0353","id":53337,"name":"\u7231\u5C14\u5170"},{"areaCode":"0372","id":53338,"name":"\u7231\u6C99\u5C3C\u4E9A"},{"areaCode":"0376","id":53339,"name":"\u5B89\u9053\u5C14"},{"areaCode":"0244","id":53341,"name":"\u5B89\u54E5\u62C9"},{"areaCode":"1264","id":53343,"name":"\u5B89\u572D\u62C9"},{"areaCode":"1268","id":53344,"name":"\u5B89\u63D0\u74DC\u548C\u5DF4\u5E03\u8FBE"},{"areaCode":"0043","id":53346,"name":"\u5965\u5730\u5229"},{"areaCode":"0061","id":53347,"name":"\u6FB3\u5927\u5229\u4E9A"},{"areaCode":"1268","id":53349,"name":"\u5DF4\u5DF4\u591A\u65AF"},{"areaCode":"0675","id":53350,"name":"\u5DF4\u5E03\u4E9A\u65B0\u51E0\u5185\u4E9A"},{"areaCode":"1242","id":53352,"name":"\u5DF4\u54C8\u9A6C"},{"areaCode":"0092","id":53353,"name":"\u5DF4\u57FA\u65AF\u5766"},{"areaCode":"0595","id":53354,"name":"\u5DF4\u62C9\u572D"},{"areaCode":"0973","id":53355,"name":"\u5DF4\u6797"},{"areaCode":"0507","id":53356,"name":"\u5DF4\u62FF\u9A6C"},{"areaCode":"0055","id":53357,"name":"\u5DF4\u897F"},{"areaCode":"0375","id":53359,"name":"\u767D\u4FC4\u7F57\u65AF"},{"areaCode":"1441","id":53361,"name":"\u767E\u6155\u5927\u4E09\u89D2"},{"areaCode":"0359","id":53362,"name":"\u4FDD\u52A0\u5229\u4E9A"},{"areaCode":"0229","id":53365,"name":"\u8D1D\u5B81"},{"areaCode":"0032","id":53367,"name":"\u6BD4\u5229\u65F6"},{"areaCode":"0354","id":53368,"name":"\u51B0\u5C9B"},{"areaCode":"1787","id":53370,"name":"\u6CE2\u591A\u9ECE\u5404"},{"areaCode":"0048","id":53372,"name":"\u6CE2\u5170"},{"areaCode":"0387","id":53374,"name":"\u6CE2\u65AF\u5C3C\u4E9A\u548C\u9ED1\u585E\u54E5\u7EF4\u90A3"},{"areaCode":"0591","id":53375,"name":"\u73BB\u5229\u7EF4\u4E9A"},{"areaCode":"0501","id":53377,"name":"\u4F2F\u5229\u5179"},{"areaCode":"0267","id":53379,"name":"\u535A\u8328\u74E6\u7EB3"},{"areaCode":"0975","id":53380,"name":"\u4E0D\u4E39"},{"areaCode":"0226","id":53382,"name":"\u5E03\u57FA\u7EB3\u6CD5\u7D22"},{"areaCode":"0257","id":53384,"name":"\u5E03\u9686\u8FEA"},{"areaCode":"0240","id":53386,"name":"\u8D64\u9053\u51E0\u5185\u4E9A"},{"areaCode":"0045","id":53387,"name":"\u4E39\u9EA6"},{"areaCode":"0049","id":53389,"name":"\u5FB7\u56FD"},{"areaCode":"0670","id":53391,"name":"\u4E1C\u5E1D\u6C76"},{"areaCode":"0228","id":53392,"name":"\u591A\u54E5"},{"areaCode":"1767","id":53394,"name":"\u591A\u7C73\u5C3C\u52A0\u5171\u548C\u56FD"},{"areaCode":"0007","id":53395,"name":"\u4FC4\u7F57\u65AF"},{"areaCode":"0593","id":53396,"name":"\u5384\u74DC\u591A\u5C14"},{"areaCode":"0291","id":53397,"name":"\u5384\u7ACB\u7279\u91CC\u4E9A"},{"areaCode":"0033","id":53398,"name":"\u6CD5\u56FD"},{"areaCode":"0298","id":53399,"name":"\u6CD5\u7F57\u7FA4\u5C9B"},{"areaCode":"0594","id":53400,"name":"\u6CD5\u5C5E\u572D\u4E9A\u90A3"},{"areaCode":"0063","id":53401,"name":"\u83F2\u5F8B\u5BBE"},{"areaCode":"0679","id":53403,"name":"\u6590\u6D4E\u7FA4\u5C9B"},{"areaCode":"0358","id":53405,"name":"\u82AC\u5170"},{"areaCode":"0238","id":53406,"name":"\u4F5B\u5F97\u89D2"},{"areaCode":"0220","id":53407,"name":"\u5188\u6BD4\u4E9A"},{"areaCode":"0242","id":53408,"name":"\u521A\u679C\u5E03"},{"areaCode":"0243","id":55944,"name":"\u521A\u679C\u91D1"},{"areaCode":"0057","id":53409,"name":"\u54E5\u4F26\u6BD4\u4E9A"},{"areaCode":"0506","id":53410,"name":"\u54E5\u65AF\u8FBE\u9ECE\u52A0"},{"areaCode":"1473","id":53411,"name":"\u683C\u6797\u7EB3\u8FBE"},{"areaCode":"0299","id":53412,"name":"\u683C\u9675\u5170"},{"areaCode":"0995","id":53413,"name":"\u683C\u9C81\u5409\u4E9A"},{"areaCode":"0053","id":53414,"name":"\u53E4\u5DF4"},{"areaCode":"0590","id":53415,"name":"\u74DC\u5FB7\u7F57\u666E"},{"areaCode":"1671","id":53417,"name":"\u5173\u5C9B"},{"areaCode":"0592","id":53419,"name":"\u572D\u4E9A\u90A3"},{"areaCode":"0007","id":53420,"name":"\u54C8\u8428\u514B\u65AF\u5766"},{"areaCode":"0509","id":53421,"name":"\u6D77\u5730"},{"areaCode":"0082","id":53422,"name":"\u97E9\u56FD"},{"areaCode":"0031","id":53423,"name":"\u8377\u5170"},{"areaCode":"0382","id":53425,"name":"\u9ED1\u5C71"},{"areaCode":"0504","id":53426,"name":"\u6D2A\u90FD\u62C9\u65AF"},{"areaCode":"0253","id":53430,"name":"\u5409\u5E03\u63D0"},{"areaCode":"0996","id":53432,"name":"\u5409\u5C14\u5409\u65AF\u65AF\u5766"},{"areaCode":"0224","id":53434,"name":"\u51E0\u5185\u4E9A"},{"areaCode":"0245","id":53436,"name":"\u51E0\u5185\u4E9A\u6BD4\u7ECD"},{"areaCode":"0001","id":53440,"name":"\u52A0\u62FF\u5927"},{"areaCode":"0233","id":53442,"name":"\u52A0\u7EB3"},{"areaCode":"0241","id":53443,"name":"\u52A0\u84EC"},{"areaCode":"0855","id":53445,"name":"\u67EC\u57D4\u5BE8"},{"areaCode":"0420","id":53447,"name":"\u6377\u514B"},{"areaCode":"0263","id":53449,"name":"\u6D25\u5DF4\u5E03\u97E6"},{"areaCode":"0237","id":53451,"name":"\u5580\u9EA6\u9686"},{"areaCode":"0974","id":53453,"name":"\u5361\u5854\u5C14"},{"areaCode":"1345","id":53455,"name":"\u5F00\u66FC\u7FA4\u5C9B"},{"areaCode":"0269","id":53457,"name":"\u79D1\u6469\u7F57"},{"areaCode":"0225","id":53458,"name":"\u79D1\u7279\u8FEA\u74E6"},{"areaCode":"0965","id":53460,"name":"\u79D1\u5A01\u7279"},{"areaCode":"0385","id":53461,"name":"\u514B\u7F57\u5730\u4E9A"},{"areaCode":"0254","id":53463,"name":"\u80AF\u5C3C\u4E9A"},{"areaCode":"0682","id":53464,"name":"\u5E93\u514B\u7FA4\u5C9B"},{"areaCode":"0371","id":53466,"name":"\u62C9\u8131\u7EF4\u4E9A"},{"areaCode":"0266","id":53467,"name":"\u83B1\u7D22\u6258"},{"areaCode":"0856","id":53476,"name":"\u8001\u631D"},{"areaCode":"0961","id":53479,"name":"\u9ECE\u5DF4\u5AE9"},{"areaCode":"0370","id":53481,"name":"\u7ACB\u9676\u5B9B"},{"areaCode":"0231","id":53482,"name":"\u5229\u6BD4\u91CC\u4E9A"},{"areaCode":"0218","id":53484,"name":"\u5229\u6BD4\u4E9A"},{"areaCode":"4175","id":53486,"name":"\u5217\u652F\u6566\u58EB\u767B"},{"areaCode":"0352","id":53491,"name":"\u5362\u68EE\u5821"},{"areaCode":"0250","id":53493,"name":"\u5362\u65FA\u8FBE"},{"areaCode":"0040","id":53494,"name":"\u7F57\u9A6C\u5C3C\u4E9A"},{"areaCode":"0261","id":53496,"name":"\u9A6C\u8FBE\u52A0\u65AF\u52A0"},{"areaCode":"0960","id":53298,"name":"\u9A6C\u5C14\u4EE3\u592B"},{"areaCode":"0356","id":53299,"name":"\u9A6C\u8033\u4ED6"},{"areaCode":"0256","id":53301,"name":"\u9A6C\u62C9\u7EF4"},{"areaCode":"0060","id":53303,"name":"\u9A6C\u6765\u897F\u4E9A"},{"areaCode":"0223","id":53304,"name":"\u9A6C\u91CC"},{"areaCode":"0389","id":53305,"name":"\u9A6C\u5176\u987F"},{"areaCode":"0596","id":53306,"name":"\u9A6C\u63D0\u5C3C\u514B"},{"areaCode":"0230","id":53307,"name":"\u6BDB\u91CC\u6C42\u65AF"},{"areaCode":"0222","id":53308,"name":"\u6BDB\u91CC\u5854\u5C3C\u4E9A"},{"areaCode":"0001","id":53309,"name":"\u7F8E\u56FD"},{"areaCode":"0684","id":53286,"name":"\u7F8E\u5C5E\u8428\u6469\u4E9A"},{"areaCode":"1340","id":53310,"name":"\u7F8E\u5C5E\u7EF4\u5C14\u4EAC\u7FA4\u5C9B"},{"areaCode":"0976","id":53311,"name":"\u8499\u53E4"},{"areaCode":"1664","id":53312,"name":"\u8499\u7279\u585E\u62C9\u7279"},{"areaCode":"0880","id":53313,"name":"\u5B5F\u52A0\u62C9"},{"areaCode":"0051","id":53314,"name":"\u79D8\u9C81"},{"areaCode":"0691","id":53316,"name":"\u5BC6\u514B\u7F57\u5C3C\u897F\u4E9A"},{"areaCode":"0373","id":53317,"name":"\u6469\u5C14\u591A\u74E6"},{"areaCode":"0212","id":53318,"name":"\u6469\u6D1B\u54E5"},{"areaCode":"0377","id":53319,"name":"\u6469\u7EB3\u54E5"},{"areaCode":"0258","id":53321,"name":"\u83AB\u6851\u6BD4\u514B"},{"areaCode":"0052","id":53322,"name":"\u58A8\u897F\u54E5"},{"areaCode":"0264","id":53323,"name":"\u7EB3\u7C73\u6BD4\u4E9A"},{"areaCode":"0027","id":53324,"name":"\u5357\u975E"},{"areaCode":"0211","id":53325,"name":"\u5357\u82CF\u4E39"},{"areaCode":"0977","id":53326,"name":"\u5C3C\u6CCA\u5C14"},{"areaCode":"0505","id":53327,"name":"\u5C3C\u52A0\u62C9\u74DC"},{"areaCode":"0227","id":53328,"name":"\u5C3C\u65E5\u5C14"},{"areaCode":"0234","id":53329,"name":"\u5C3C\u65E5\u5229\u4E9A"},{"areaCode":"0047","id":53330,"name":"\u632A\u5A01"},{"areaCode":"0680","id":53331,"name":"\u5E15\u52B3"},{"areaCode":"0351","id":53332,"name":"\u8461\u8404\u7259"},{"areaCode":"0081","id":53333,"name":"\u65E5\u672C"},{"areaCode":"0046","id":53334,"name":"\u745E\u5178"},{"areaCode":"0041","id":53335,"name":"\u745E\u58EB"},{"areaCode":"0503","id":53340,"name":"\u8428\u5C14\u74E6\u591A"},{"areaCode":"0685","id":53342,"name":"\u8428\u6469\u4E9A"},{"areaCode":"0381","id":53345,"name":"\u585E\u5C14\u7EF4\u4E9A"},{"areaCode":"0232","id":53348,"name":"\u585E\u62C9\u5229\u6602"},{"areaCode":"0221","id":53351,"name":"\u585E\u5185\u52A0\u5C14"},{"areaCode":"0357","id":53358,"name":"\u585E\u6D66\u8DEF\u65AF"},{"areaCode":"0248","id":53360,"name":"\u585E\u820C\u5C14"},{"areaCode":"0966","id":53363,"name":"\u6C99\u7279\u963F\u62C9\u4F2F"},{"areaCode":"0239","id":53364,"name":"\u5723\u591A\u7F8E\u548C\u666E\u6797\u897F\u6BD4"},{"areaCode":"1869","id":53366,"name":"\u5723\u57FA\u8328\u548C\u5C3C\u7EF4\u65AF"},{"areaCode":"1758","id":53369,"name":"\u5723\u5362\u897F\u4E9A"},{"areaCode":"0378","id":53371,"name":"\u5723\u9A6C\u529B\u8BFA"},{"areaCode":"1784","id":53373,"name":"\u5723\u6587\u68EE\u7279\u548C\u683C\u6797\u7EB3\u4E01\u65AF"},{"areaCode":"0094","id":53376,"name":"\u65AF\u91CC\u5170\u5361"},{"areaCode":"0421","id":53378,"name":"\u65AF\u6D1B\u4F10\u514B"},{"areaCode":"0386","id":53381,"name":"\u65AF\u6D1B\u6587\u5C3C\u4E9A"},{"areaCode":"0268","id":53383,"name":"\u65AF\u5A01\u58EB\u5170"},{"areaCode":"0249","id":53385,"name":"\u82CF\u4E39"},{"areaCode":"0597","id":53388,"name":"\u82CF\u91CC\u5357"},{"areaCode":"0677","id":53390,"name":"\u6240\u7F57\u95E8\u7FA4\u5C9B"},{"areaCode":"0252","id":53393,"name":"\u7D22\u9A6C\u91CC"},{"areaCode":"0992","id":53402,"name":"\u5854\u5409\u514B\u65AF\u5766"},{"areaCode":"0066","id":53404,"name":"\u6CF0\u56FD"},{"areaCode":"0255","id":53418,"name":"\u5766\u6851\u5C3C\u4E9A"},{"areaCode":"0676","id":53424,"name":"\u6C64\u52A0"},{"areaCode":"1649","id":53427,"name":"\u7279\u514B\u65AF\u548C\u51EF\u79D1\u65AF\u7FA4\u5C9B"},{"areaCode":"1868","id":53429,"name":"\u7279\u7ACB\u5C3C\u8FBE\u548C\u591A\u5DF4\u54E5"},{"areaCode":"0216","id":53431,"name":"\u7A81\u5C3C\u65AF"},{"areaCode":"0688","id":53433,"name":"\u56FE\u74E6\u5362"},{"areaCode":"0090","id":53435,"name":"\u571F\u8033\u5176"},{"areaCode":"0678","id":53437,"name":"\u74E6\u52AA\u963F\u56FE"},{"areaCode":"0502","id":53438,"name":"\u5371\u5730\u9A6C\u62C9"},{"areaCode":"0058","id":53439,"name":"\u59D4\u5185\u745E\u62C9"},{"areaCode":"673","id":53441,"name":"\u6587\u83B1"},{"areaCode":"0380","id":53446,"name":"\u4E4C\u514B\u5170"},{"areaCode":"0598","id":53448,"name":"\u4E4C\u62C9\u572D"},{"areaCode":"0998","id":53450,"name":"\u4E4C\u5179\u522B\u514B\u65AF\u5766"},{"areaCode":"0034","id":53452,"name":"\u897F\u73ED\u7259"},{"areaCode":"0030","id":53454,"name":"\u5E0C\u814A"},{"areaCode":"0065","id":53456,"name":"\u65B0\u52A0\u5761"},{"areaCode":"0687","id":53459,"name":"\u65B0\u5580\u91CC\u591A\u5C3C\u4E9A"},{"areaCode":"0064","id":53462,"name":"\u65B0\u897F\u5170"},{"areaCode":"0036","id":53465,"name":"\u5308\u7259\u5229"},{"areaCode":"0963","id":53468,"name":"\u53D9\u5229\u4E9A"},{"areaCode":"1876","id":53469,"name":"\u7259\u4E70\u52A0"},{"areaCode":"0374","id":53470,"name":"\u4E9A\u7F8E\u5C3C\u4E9A"},{"areaCode":"0967","id":53471,"name":"\u4E5F\u95E8"},{"areaCode":"0964","id":53472,"name":"\u4F0A\u62C9\u514B"},{"areaCode":"0098","id":53473,"name":"\u4F0A\u6717"},{"areaCode":"0972","id":53474,"name":"\u4EE5\u8272\u5217"},{"areaCode":"0039","id":53475,"name":"\u610F\u5927\u5229"},{"areaCode":"0091","id":53477,"name":"\u5370\u5EA6"},{"areaCode":"0062","id":53478,"name":"\u5370\u5EA6\u5C3C\u897F\u4E9A"},{"areaCode":"0044","id":53480,"name":"\u82F1\u56FD"},{"areaCode":"1284","id":53483,"name":"\u82F1\u5C5E\u7EF4\u5C14\u4EAC\u7FA4\u5C9B"},{"areaCode":"0962","id":53485,"name":"\u7EA6\u65E6"},{"areaCode":"0084","id":53487,"name":"\u8D8A\u5357"},{"areaCode":"0260","id":53488,"name":"\u8D5E\u6BD4\u4E9A"},{"areaCode":"0235","id":53489,"name":"\u4E4D\u5F97"},{"areaCode":"0056","id":53490,"name":"\u667A\u5229"},{"areaCode":"0236","id":53492,"name":"\u4E2D\u975E"}]